{
  "type": "FeatureCollection",
  "features": [
    {
      "type": "Feature",
      "properties": {
        "norad_id": 66655,
        "name": "2025-274F",
        "group": "last-30-days",
        "lat": 81.40959132948797,
        "lon": -149.5309809588777,
        "alt_km": 586.0064002325871,
        "timestamp": "2025-12-13T08:49:14.457378+00:00",
        "meta_object_name": "2025-274F",
        "meta_object_id": "2025-274F",
        "meta_epoch": "2025-12-12T19:33:04.273920",
        "meta_mean_motion": 14.91089281,
        "meta_eccentricity": 0.00054102,
        "meta_inclination": 97.7325,
        "meta_ra_of_asc_node": 274.0134,
        "meta_arg_of_pericenter": 14.8803,
        "meta_mean_anomaly": 345.2574,
        "meta_ephemeris_type": 0,
        "meta_classification_type": "U",
        "meta_norad_cat_id": 66655,
        "meta_element_set_no": 999,
        "meta_rev_at_epoch": 241,
        "meta_bstar": 2.464325e-05,
        "meta_mean_motion_dot": 1.89e-06,
        "meta_mean_motion_ddot": 0,
        "tle_line1": "1 66655U 25274F   25346.81463280  .00000189  00000+0  24643-4 0  9990",
        "tle_line2": "2 66655  97.7325 274.0134 0005410  14.8803 345.2574 14.91089281  2418"
      },
      "geometry": {
        "type": "Point",
        "coordinates": [
          -149.5309809588777,
          81.40959132948797
        ]
      }
    },
    {
      "type": "Feature",
      "properties": {
        "norad_id": 66656,
        "name": "2025-274G",
        "group": "last-30-days",
        "lat": 80.38282324401361,
        "lon": 147.92782763489615,
        "alt_km": 591.4600163388459,
        "timestamp": "2025-12-13T08:49:14.457390+00:00",
        "meta_object_name": "2025-274G",
        "meta_object_id": "2025-274G",
        "meta_epoch": "2025-12-12T17:54:32.673600",
        "meta_mean_motion": 14.92274873,
        "meta_eccentricity": 0.00123434,
        "meta_inclination": 97.7384,
        "meta_ra_of_asc_node": 273.9479,
        "meta_arg_of_pericenter": 256.8812,
        "meta_mean_anomaly": 103.103,
        "meta_ephemeris_type": 0,
        "meta_classification_type": "U",
        "meta_norad_cat_id": 66656,
        "meta_element_set_no": 999,
        "meta_rev_at_epoch": 240,
        "meta_bstar": 0.00052553354,
        "meta_mean_motion_dot": 5.317e-05,
        "meta_mean_motion_ddot": 0,
        "tle_line1": "1 66656U 25274G   25346.74621150  .00005317  00000+0  52553-3 0  9993",
        "tle_line2": "2 66656  97.7384 273.9479 0012343 256.8812 103.1030 14.92274873  2406"
      },
      "geometry": {
        "type": "Point",
        "coordinates": [
          147.92782763489615,
          80.38282324401361
        ]
      }
    },
    {
      "type": "Feature",
      "properties": {
        "norad_id": 66657,
        "name": "SPIRONE",
        "group": "last-30-days",
        "lat": 71.8127260040811,
        "lon": 119.01099806025259,
        "alt_km": 590.6240468142669,
        "timestamp": "2025-12-13T08:49:14.457403+00:00",
        "meta_object_name": "SPIRONE",
        "meta_object_id": "2025-274H",
        "meta_epoch": "2025-12-12T17:51:46.503936",
        "meta_mean_motion": 14.92453734,
        "meta_eccentricity": 0.00106834,
        "meta_inclination": 97.7381,
        "meta_ra_of_asc_node": 273.9498,
        "meta_arg_of_pericenter": 276.0433,
        "meta_mean_anomaly": 83.9569,
        "meta_ephemeris_type": 0,
        "meta_classification_type": "U",
        "meta_norad_cat_id": 66657,
        "meta_element_set_no": 999,
        "meta_rev_at_epoch": 240,
        "meta_bstar": 0.00051210186,
        "meta_mean_motion_dot": 5.201e-05,
        "meta_mean_motion_ddot": 0,
        "tle_line1": "1 66657U 25274H   25346.74428824  .00005201  00000+0  51210-3 0  9998",
        "tle_line2": "2 66657  97.7381 273.9498 0010683 276.0433  83.9569 14.92453734  2400"
      },
      "geometry": {
        "type": "Point",
        "coordinates": [
          119.01099806025259,
          71.8127260040811
        ]
      }
    },
    {
      "type": "Feature",
      "properties": {
        "norad_id": 66658,
        "name": "2025-274J",
        "group": "last-30-days",
        "lat": 62.045104383901815,
        "lon": 109.41290142678221,
        "alt_km": 591.0782823752197,
        "timestamp": "2025-12-13T08:49:14.457413+00:00",
        "meta_object_name": "2025-274J",
        "meta_object_id": "2025-274J",
        "meta_epoch": "2025-12-12T21:02:08.734272",
        "meta_mean_motion": 14.92625953,
        "meta_eccentricity": 0.0011263,
        "meta_inclination": 97.7382,
        "meta_ra_of_asc_node": 274.0843,
        "meta_arg_of_pericenter": 278.3932,
        "meta_mean_anomaly": 81.601,
        "meta_ephemeris_type": 0,
        "meta_classification_type": "U",
        "meta_norad_cat_id": 66658,
        "meta_element_set_no": 999,
        "meta_rev_at_epoch": 242,
        "meta_bstar": 0.00048883719,
        "meta_mean_motion_dot": 4.984e-05,
        "meta_mean_motion_ddot": 0,
        "tle_line1": "1 66658U 25274J   25346.87648998  .00004984  00000+0  48884-3 0  9999",
        "tle_line2": "2 66658  97.7382 274.0843 0011263 278.3932  81.6010 14.92625953  2424"
      },
      "geometry": {
        "type": "Point",
        "coordinates": [
          109.41290142678221,
          62.045104383901815
        ]
      }
    },
    {
      "type": "Feature",
      "properties": {
        "norad_id": 66659,
        "name": "JACK K",
        "group": "last-30-days",
        "lat": 51.26399358561203,
        "lon": 104.33137554541783,
        "alt_km": 591.7251802086903,
        "timestamp": "2025-12-13T08:49:14.457423+00:00",
        "meta_object_name": "JACK K",
        "meta_object_id": "2025-274K",
        "meta_epoch": "2025-12-12T17:46:12.059040",
        "meta_mean_motion": 14.92808742,
        "meta_eccentricity": 0.00120213,
        "meta_inclination": 97.7382,
        "meta_ra_of_asc_node": 273.9556,
        "meta_arg_of_pericenter": 280.3717,
        "meta_mean_anomaly": 79.6147,
        "meta_ephemeris_type": 0,
        "meta_classification_type": "U",
        "meta_norad_cat_id": 66659,
        "meta_element_set_no": 999,
        "meta_rev_at_epoch": 240,
        "meta_bstar": 0.00046288729,
        "meta_mean_motion_dot": 4.739e-05,
        "meta_mean_motion_ddot": 0,
        "tle_line1": "1 66659U 25274K   25346.74041735  .00004739  00000+0  46289-3 0  9997",
        "tle_line2": "2 66659  97.7382 273.9556 0012021 280.3717  79.6147 14.92808742  2406"
      },
      "geometry": {
        "type": "Point",
        "coordinates": [
          104.33137554541783,
          51.26399358561203
        ]
      }
    },
    {
      "type": "Feature",
      "properties": {
        "norad_id": 66660,
        "name": "K-HERO",
        "group": "last-30-days",
        "lat": 42.45470641029776,
        "lon": 101.72328918231835,
        "alt_km": 592.1561126256083,
        "timestamp": "2025-12-13T08:49:14.457434+00:00",
        "meta_object_name": "K-HERO",
        "meta_object_id": "2025-274L",
        "meta_epoch": "2025-12-12T20:56:54.187296",
        "meta_mean_motion": 14.92959825,
        "meta_eccentricity": 0.00126329,
        "meta_inclination": 97.7388,
        "meta_ra_of_asc_node": 274.09,
        "meta_arg_of_pericenter": 280.2924,
        "meta_mean_anomaly": 79.6871,
        "meta_ephemeris_type": 0,
        "meta_classification_type": "U",
        "meta_norad_cat_id": 66660,
        "meta_element_set_no": 999,
        "meta_rev_at_epoch": 242,
        "meta_bstar": 0.00042692655,
        "meta_mean_motion_dot": 4.384e-05,
        "meta_mean_motion_ddot": 0,
        "tle_line1": "1 66660U 25274L   25346.87284939  .00004384  00000+0  42693-3 0  9999",
        "tle_line2": "2 66660  97.7388 274.0900 0012632 280.2924  79.6871 14.92959825  2421"
      },
      "geometry": {
        "type": "Point",
        "coordinates": [
          101.72328918231835,
          42.45470641029776
        ]
      }
    },
    {
      "type": "Feature",
      "properties": {
        "norad_id": 66661,
        "name": "SNUGLITE-III",
        "group": "last-30-days",
        "lat": 33.68130653525718,
        "lon": 99.77944121510683,
        "alt_km": 592.6356342419595,
        "timestamp": "2025-12-13T08:49:14.457446+00:00",
        "meta_object_name": "SNUGLITE-III",
        "meta_object_id": "2025-274M",
        "meta_epoch": "2025-12-12T20:54:34.670304",
        "meta_mean_motion": 14.93098958,
        "meta_eccentricity": 0.00133561,
        "meta_inclination": 97.7384,
        "meta_ra_of_asc_node": 274.0918,
        "meta_arg_of_pericenter": 281.3992,
        "meta_mean_anomaly": 78.5727,
        "meta_ephemeris_type": 0,
        "meta_classification_type": "U",
        "meta_norad_cat_id": 66661,
        "meta_element_set_no": 999,
        "meta_rev_at_epoch": 242,
        "meta_bstar": 0.00040097821,
        "meta_mean_motion_dot": 4.129e-05,
        "meta_mean_motion_ddot": 0,
        "tle_line1": "1 66661U 25274M   25346.87123461  .00004129  00000+0  40098-3 0  9996",
        "tle_line2": "2 66661  97.7384 274.0918 0013356 281.3992  78.5727 14.93098958  2428"
      },
      "geometry": {
        "type": "Point",
        "coordinates": [
          99.77944121510683,
          33.68130653525718
        ]
      }
    }
  ]
}